OBJECT_NAME,OBJECT_ID,EPOCH,MEAN_MOTION,ECCENTRICITY,INCLINATION,RA_OF_ASC_NODE,ARG_OF_PERICENTER,MEAN_ANOMALY,EPHEMERIS_TYPE,CLASSIFICATION_TYPE,NORAD_CAT_ID,ELEMENT_SET_NO,REV_AT_EPOCH,BSTAR,MEAN_MOTION_DOT,MEAN_MOTION_DDOT
ORBCOMM FM06,1997-084G,2026-06-29T22:17:19.096800,14.47594290,.00001651,45.0146,351.3732,160.9035,358.3636,0,U,25118,999,49623,.39739831E-3,.1332E-4,0
ORBCOMM FM04,1998-007C,2026-06-29T22:27:22.543776,14.35763186,.00416871,107.9626,195.6579,302.9031,56.8102,0,U,25159,999,47842,.32286094E-3,.811E-5,0
ORBCOMM FM19,1998-046C,2026-06-29T23:34:36.384384,14.39515396,.00041693,44.9921,182.7397,336.1347,44.8243,0,U,25415,999,45862,.29692674E-3,.792E-5,0
ORBCOMM FM20,1998-046D,2026-06-29T17:25:24.249504,14.38080155,.00024216,44.9921,192.0197,292.2978,67.7614,0,U,25416,999,45859,.19916087E-3,.467E-5,0
ORBCOMM FM27,1998-053G,2026-06-30T14:02:39.443136,14.39165141,.00020763,45.0054,271.7177,241.6122,118.4518,0,U,25481,999,45216,.29336387E-3,.774E-5,0
ORBCOMM FM32,1999-065C,2026-06-30T01:57:01.372032,14.37147986,.00043905,45.0145,112.2057,111.5413,248.5904,0,U,25982,999,38894,.2979757E-3,.752E-5,0
ORBCOMM FM109,2014-040A,2026-06-29T23:22:25.476672,14.58859530,.00019442,47.0046,31.0324,280.8047,79.2620,0,U,40086,999,63621,.14380288E-3,.509E-5,0
ORBCOMM FM110,2015-081D,2026-06-30T01:08:38.673312,14.58899856,.00027678,47.0026,300.6348,151.8640,208.2396,0,U,41182,999,55950,.19041036E-3,.729E-5,0
ORBCOMM FM118,2015-081E,2026-06-30T00:19:25.102272,14.58891473,.00022808,47.0049,301.1304,103.5168,256.5972,0,U,41183,999,55960,.13403003E-3,.463E-5,0
ORBCOMM FM112,2015-081F,2026-06-30T11:55:57.112320,14.58917672,.00041302,46.9971,207.3067,269.8419,90.1993,0,U,41184,999,56089,.10947037E-3,.347E-5,0
ORBCOMM FM113,2015-081G,2026-06-30T11:22:55.178400,14.58869516,.00026286,46.9989,207.7982,270.1275,89.9309,0,U,41185,999,56087,.95535175E-4,.28E-5,0
ORBCOMM FM108,2015-081J,2026-06-29T19:40:59.110176,14.58889060,.00032103,47.0046,122.4680,268.1018,91.9500,0,U,41187,999,56192,.15104351E-3,.543E-5,0
ORBCOMM FM117,2015-081K,2026-06-30T03:04:33.189024,14.58876871,.00036999,47.0006,119.6420,273.2497,86.7965,0,U,41188,999,56201,.13966578E-3,.489E-5,0
ORBCOMM FM116,2015-081L,2026-06-30T12:27:51.206688,14.58896557,.00008987,47.0006,207.5827,181.1835,178.9049,0,U,41189,999,56088,.10264524E-3,.314E-5,0
